{
  "type": "FeatureCollection",
  "generator": "overpass-turbo",
  "copyright": "The data included in this document is from www.openstreetmap.org. The data is made available under ODbL.",
  "timestamp": "2025-10-19T05:05:03Z",
  "features": [
    {
      "type": "Feature",
      "properties": {
        "@id": "relation/7638093",
        "admin_level": "6",
        "boundary": "administrative",
        "name": "Xã Hóc Môn",
        "type": "boundary",
        "wikidata": "Q10771197"
      },
      "geometry": {
        "type": "Polygon",
        "coordinates": [
          [
            [
              106.5630414,
              10.9182302
            ],
            [
              106.5643261,
              10.91641
            ],
            [
              106.5660674,
              10.9139252
            ],
            [
              106.5673097,
              10.9121494
            ],
            [
              106.5682228,
              10.9108532
            ],
            [
              106.5701211,
              10.9081307
            ],
            [
              106.5730072,
              10.9040265
            ],
            [
              106.5754878,
              10.9004499
            ],
            [
              106.5779284,
              10.8989518
            ],
            [
              106.5799459,
              10.8977676
            ],
            [
              106.5890957,
              10.8922318
            ],
            [
              106.5884536,
              10.8919055
            ],
            [
              106.5884212,
              10.8917463
            ],
            [
              106.5877983,
              10.8913629
            ],
            [
              106.5871996,
              10.8909981
            ],
            [
              106.5869793,
              10.8908449
            ],
            [
              106.586929,
              10.8906804
            ],
            [
              106.5862435,
              10.8889383
            ],
            [
              106.5861338,
              10.8888199
            ],
            [
              106.585929,
              10.8887512
            ],
            [
              106.585699,
              10.8887747
            ],
            [
              106.5855604,
              10.8887889
            ],
            [
              106.5853298,
              10.8889269
            ],
            [
              106.5852067,
              10.8890005
            ],
            [
              106.5850665,
              10.8890252
            ],
            [
              106.5848735,
              10.8889704
            ],
            [
              106.5847243,
              10.8889281
            ],
            [
              106.5844552,
              10.8887637
            ],
            [
              106.5841098,
              10.8885561
            ],
            [
              106.5839488,
              10.8884936
            ],
            [
              106.5838692,
              10.8884775
            ],
            [
              106.5846409,
              10.8873918
            ],
            [
              106.585064,
              10.8867967
            ],
            [
              106.5859452,
              10.8855078
            ],
            [
              106.5872239,
              10.883638
            ],
            [
              106.5886442,
              10.8815594
            ],
            [
              106.5895408,
              10.8802583
            ],
            [
              106.591356,
              10.8777821
            ],
            [
              106.593965,
              10.8741601
            ],
            [
              106.6013281,
              10.8637655
            ],
            [
              106.601393,
              10.8638156
            ],
            [
              106.6026744,
              10.8646741
            ],
            [
              106.6027817,
              10.8652037
            ],
            [
              106.6048707,
              10.8653309
            ],
            [
              106.6048898,
              10.8657035
            ],
            [
              106.6047124,
              10.8669763
            ],
            [
              106.6046703,
              10.867606
            ],
            [
              106.6048392,
              10.8677831
            ],
            [
              106.6052636,
              10.8680438
            ],
            [
              106.6054292,
              10.8681672
            ],
            [
              106.6055993,
              10.86833
            ],
            [
              106.6059627,
              10.8688497
            ],
            [
              106.6059795,
              10.8690362
            ],
            [
              106.6063003,
              10.869468
            ],
            [
              106.6065033,
              10.8694007
            ],
            [
              106.6066321,
              10.8694297
            ],
            [
              106.6068184,
              10.8698019
            ],
            [
              106.6069426,
              10.870394
            ],
            [
              106.6071721,
              10.8708811
            ],
            [
              106.6072727,
              10.8710319
            ],
            [
              106.6061901,
              10.871956
            ],
            [
              106.6064698,
              10.8726213
            ],
            [
              106.6066729,
              10.873889
            ],
            [
              106.6068122,
              10.8745641
            ],
            [
              106.6069114,
              10.8748542
            ],
            [
              106.606975,
              10.8750402
            ],
            [
              106.6076653,
              10.8749458
            ],
            [
              106.6077265,
              10.8749374
            ],
            [
              106.6078385,
              10.8749221
            ],
            [
              106.6085393,
              10.8746336
            ],
            [
              106.6088685,
              10.8748282
            ],
            [
              106.609102,
              10.8752383
            ],
            [
              106.6096192,
              10.8755029
            ],
            [
              106.6102912,
              10.8763057
            ],
            [
              106.6107963,
              10.8769091
            ],
            [
              106.6103452,
              10.8777474
            ],
            [
              106.6080523,
              10.8823515
            ],
            [
              106.6078453,
              10.8827879
            ],
            [
              106.6077348,
              10.8829515
            ],
            [
              106.6075945,
              10.8829446
            ],
            [
              106.6068381,
              10.8827813
            ],
            [
              106.6063821,
              10.8828814
            ],
            [
              106.6035819,
              10.8831185
            ],
            [
              106.6019938,
              10.8835188
            ],
            [
              106.6015002,
              10.8837612
            ],
            [
              106.6009212,
              10.883798
            ],
            [
              106.6008297,
              10.883935
            ],
            [
              106.5998802,
              10.883856
            ],
            [
              106.5995422,
              10.8838454
            ],
            [
              106.599226,
              10.8839455
            ],
            [
              106.5988449,
              10.8838876
            ],
            [
              106.5988197,
              10.8836577
            ],
            [
              106.5988183,
              10.8836453
            ],
            [
              106.5986678,
              10.8834925
            ],
            [
              106.5985077,
              10.8834459
            ],
            [
              106.598509,
              10.8835719
            ],
            [
              106.5985712,
              10.8838819
            ],
            [
              106.5986065,
              10.8842004
            ],
            [
              106.5986126,
              10.884396
            ],
            [
              106.5985577,
              10.8847513
            ],
            [
              106.599167,
              10.8847568
            ],
            [
              106.5996978,
              10.8846936
            ],
            [
              106.6010016,
              10.8844723
            ],
            [
              106.6010792,
              10.8850492
            ],
            [
              106.6010791,
              10.8853771
            ],
            [
              106.6011907,
              10.8859303
            ],
            [
              106.6012672,
              10.8861581
            ],
            [
              106.6014131,
              10.8863003
            ],
            [
              106.6018395,
              10.8866572
            ],
            [
              106.6019318,
              10.8867916
            ],
            [
              106.6020652,
              10.8869661
            ],
            [
              106.6023972,
              10.8876395
            ],
            [
              106.6015316,
              10.8879599
            ],
            [
              106.6012041,
              10.8880023
            ],
            [
              106.6001698,
              10.8880188
            ],
            [
              106.6007756,
              10.8889468
            ],
            [
              106.5996687,
              10.8893016
            ],
            [
              106.5981497,
              10.8893696
            ],
            [
              106.5981738,
              10.890282
            ],
            [
              106.598244,
              10.8907247
            ],
            [
              106.5990223,
              10.8922781
            ],
            [
              106.5980331,
              10.8926298
            ],
            [
              106.5981857,
              10.8927503
            ],
            [
              106.5985712,
              10.8928306
            ],
            [
              106.5987319,
              10.8929672
            ],
            [
              106.5989086,
              10.8932162
            ],
            [
              106.5989728,
              10.8936017
            ],
            [
              106.5991656,
              10.8940515
            ],
            [
              106.5997198,
              10.8946941
            ],
            [
              106.6005552,
              10.8965174
            ],
            [
              106.6009006,
              10.897176
            ],
            [
              106.6008444,
              10.8977142
            ],
            [
              106.6010211,
              10.8978267
            ],
            [
              106.6013825,
              10.8978026
            ],
            [
              106.6015512,
              10.8979311
            ],
            [
              106.6017951,
              10.8986453
            ],
            [
              106.6021178,
              10.8991336
            ],
            [
              106.6021758,
              10.8994978
            ],
            [
              106.6017951,
              10.9000275
            ],
            [
              106.6016544,
              10.9005489
            ],
            [
              106.6012488,
              10.9008965
            ],
            [
              106.6012571,
              10.9016662
            ],
            [
              106.6008102,
              10.9044304
            ],
            [
              106.6005702,
              10.9052663
            ],
            [
              106.6005371,
              10.9058788
            ],
            [
              106.6003715,
              10.9062512
            ],
            [
              106.600355,
              10.906516
            ],
            [
              106.600478,
              10.9068363
            ],
            [
              106.6009043,
              10.9069989
            ],
            [
              106.6016608,
              10.9067284
            ],
            [
              106.6054809,
              10.909443
            ],
            [
              106.6070127,
              10.9095898
            ],
            [
              106.6076198,
              10.9103418
            ],
            [
              106.6130768,
              10.9116281
            ],
            [
              106.6144103,
              10.9121071
            ],
            [
              106.6172073,
              10.9126181
            ],
            [
              106.6183198,
              10.9131643
            ],
            [
              106.6190612,
              10.9135283
            ],
            [
              106.6192199,
              10.9135823
            ],
            [
              106.6220677,
              10.9144584
            ],
            [
              106.6199735,
              10.9148695
            ],
            [
              106.6190913,
              10.9150295
            ],
            [
              106.6185915,
              10.9151063
            ],
            [
              106.6154376,
              10.9155034
            ],
            [
              106.6146905,
              10.9156233
            ],
            [
              106.6140481,
              10.9157493
            ],
            [
              106.6135034,
              10.9158437
            ],
            [
              106.6129444,
              10.9159164
            ],
            [
              106.6124168,
              10.9159691
            ],
            [
              106.6119017,
              10.9160372
            ],
            [
              106.6087103,
              10.9165654
            ],
            [
              106.603201,
              10.9174503
            ],
            [
              106.6025764,
              10.9175344
            ],
            [
              106.6022627,
              10.9175657
            ],
            [
              106.6017551,
              10.9176011
            ],
            [
              106.6013686,
              10.9176432
            ],
            [
              106.6004518,
              10.9177979
            ],
            [
              106.6005537,
              10.9203098
            ],
            [
              106.6005606,
              10.9204123
            ],
            [
              106.6005741,
              10.9205142
            ],
            [
              106.6005942,
              10.9206152
            ],
            [
              106.6006207,
              10.9207147
            ],
            [
              106.6008887,
              10.9217565
            ],
            [
              106.6011921,
              10.9230665
            ],
            [
              106.5841268,
              10.9284821
            ],
            [
              106.5836661,
              10.9286652
            ],
            [
              106.5833402,
              10.9287925
            ],
            [
              106.5824551,
              10.9290554
            ],
            [
              106.5817491,
              10.9292941
            ],
            [
              106.5815676,
              10.929331
            ],
            [
              106.5814577,
              10.929341
            ],
            [
              106.5815729,
              10.9267068
            ],
            [
              106.581569,
              10.9261715
            ],
            [
              106.581576,
              10.9261048
            ],
            [
              106.5816009,
              10.9260432
            ],
            [
              106.5816414,
              10.9259911
            ],
            [
              106.5823622,
              10.9253856
            ],
            [
              106.5824779,
              10.9252495
            ],
            [
              106.5825266,
              10.9251747
            ],
            [
              106.5825949,
              10.9250367
            ],
            [
              106.5826419,
              10.9248903
            ],
            [
              106.5830389,
              10.923289
            ],
            [
              106.5830574,
              10.9232359
            ],
            [
              106.5830818,
              10.923185
            ],
            [
              106.5831354,
              10.923106
            ],
            [
              106.5833382,
              10.9228757
            ],
            [
              106.5833887,
              10.9228043
            ],
            [
              106.5834313,
              10.922728
            ],
            [
              106.5834653,
              10.9226478
            ],
            [
              106.5835003,
              10.9225189
            ],
            [
              106.5835496,
              10.9221355
            ],
            [
              106.583582,
              10.9219788
            ],
            [
              106.5836357,
              10.9217839
            ],
            [
              106.5837014,
              10.9216062
            ],
            [
              106.5837657,
              10.9214758
            ],
            [
              106.5838483,
              10.9212424
            ],
            [
              106.5839106,
              10.9211163
            ],
            [
              106.5839974,
              10.9209748
            ],
            [
              106.584034,
              10.9209003
            ],
            [
              106.5840904,
              10.9207526
            ],
            [
              106.5841407,
              10.9205487
            ],
            [
              106.5841761,
              10.9202893
            ],
            [
              106.5841815,
              10.9200286
            ],
            [
              106.5841641,
              10.9196599
            ],
            [
              106.5834895,
              10.9197731
            ],
            [
              106.5830793,
              10.9198307
            ],
            [
              106.5826679,
              10.9198798
            ],
            [
              106.5818751,
              10.9199554
            ],
            [
              106.5814941,
              10.9199836
            ],
            [
              106.5807307,
              10.9200202
            ],
            [
              106.5799576,
              10.9200304
            ],
            [
              106.5795667,
              10.9200252
            ],
            [
              106.5787854,
              10.9199941
            ],
            [
              106.5764487,
              10.9198285
            ],
            [
              106.5738898,
              10.9197468
            ],
            [
              106.5678522,
              10.9193704
            ],
            [
              106.567476,
              10.9193418
            ],
            [
              106.5663299,
              10.9192208
            ],
            [
              106.5659433,
              10.9191912
            ],
            [
              106.5653839,
              10.9191633
            ],
            [
              106.5650412,
              10.9191267
            ],
            [
              106.5647033,
              10.9190594
            ],
            [
              106.5643848,
              10.9189661
            ],
            [
              106.5642291,
              10.9189091
            ],
            [
              106.563926,
              10.9187753
            ],
            [
              106.5637793,
              10.9186986
            ],
            [
              106.5633396,
              10.9184257
            ],
            [
              106.5630414,
              10.9182302
            ]
          ]
        ]
      },
      "id": "relation/7638093"
    }
  ]
}